528807 (528807),e,5.5457,17.4483,292.4591,0.936702,1.0871810,0.26575079,235.0237,06/09.0/2026,2000,H22.07,0.15
# From MPO701468
528859 (528859),e,5.0520,316.6946,321.3585,1.075731,0.8833823,0.26243851,68.7707,06/09.0/2026,2000,H22.21,0.15
# From MPO701473
529108 (529108),e,4.1729,203.7130,119.3362,3.143864,0.1768107,0.21393659,35.9586,06/09.0/2026,2000,H17.25,0.15
# From MPO701474
529152 (529152),e,13.0038,215.0013,144.8441,2.697039,0.2225221,0.27264608,279.7444,06/09.0/2026,2000,H17.20,0.15
# From MPO701475
529205 (529205),e,13.9742,26.6585,353.6018,2.608878,0.2338963,0.18508287,342.3404,06/09.0/2026,2000,H17.62,0.15
# From MPO701475
529208 (529208),e,4.2334,249.0512,168.2838,2.615024,0.2330723,0.23589495,317.5959,06/09.0/2026,2000,H18.66,0.15
# From MPO701476
529304 (529304),e,31.7578,29.7922,47.1753,2.627465,0.2314188,0.25891042,296.4686,06/09.0/2026,2000,H17.34,0.15
# From MPO701476
529310 (529310),e,2.8682,86.9512,283.0560,2.759589,0.2149995,0.22564175,249.5420,06/09.0/2026,2000,H17.98,0.15
# From MPO701478
529388 (529388),e,4.3370,274.5467,93.4769,2.735625,0.2178308,0.46179867,254.3758,06/09.0/2026,2000,H18.64,0.15
# From MPO701479
529456 (529456),e,5.9794,285.6690,141.3187,4.503241,0.1031374,0.38801050,273.2514,06/09.0/2026,2000,H15.72,0.15
# From MPO928787
529465 (529465),e,12.5050,156.0503,259.9100,4.351993,0.1085605,0.50487850,305.7837,06/09.0/2026,2000,H16.15,0.15
# From MPO701480
529513 (529513),e,11.9643,139.0578,60.1572,2.720631,0.2196340,0.26676034,202.3874,06/09.0/2026,2000,H17.62,0.15
# From MPO701486
529819 (529819),e,13.5903,332.3516,53.8295,1.371323,0.6137539,0.45965994,276.5087,06/09.0/2026,2000,H20.86,0.15
# From MPO701487
529854 (529854),e,3.5674,305.4698,54.7146,2.472509,0.2535113,0.30508975,15.7795,06/09.0/2026,2000,H19.26,0.15
# From MPO701488
529920 (529920),e,25.1228,196.3848,289.6845,2.436490,0.2591535,0.51733816,356.6132,06/09.0/2026,2000,H19.38,0.15
# From MPO701489
529984 (529984),e,13.0644,216.7494,135.0769,2.584139,0.2372632,0.29727809,299.5054,06/09.0/2026,2000,H17.88,0.15
# From MPO701499
530520 (530520),e,20.9030,83.4432,270.6279,1.099628,0.8547429,0.28744752,298.9869,06/09.0/2026,2000,H21.85,0.15
# From MPO701500
530538 (530538),e,2.6536,6.4947,280.2522,2.674554,0.2253341,0.22791418,154.1820,06/09.0/2026,2000,H17.93,0.15
# From MPO701500
530545 (530545),e,5.4246,178.9400,110.5186,2.679950,0.2246539,0.18898203,151.7419,06/09.0/2026,2000,H17.95,0.15
# From MPO701506
530871 (530871),e,46.7975,326.7170,307.6831,1.009455,0.9717921,0.74330741,168.3995,06/09.0/2026,2000,H17.25,0.15
# From MPO701507
530941 (530941),e,11.1750,335.1893,190.0300,45.68569,0.0031918,0.19438385,20.3484,06/09.0/2026,2000,H 6.91,0.15
# From MPO701510
531060 (531060),e,53.6376,346.2599,311.9610,0.917557,1.1213843,0.51525204,334.7005,06/09.0/2026,2000,H19.89,0.15
# From MPO701510
531074 (531074),e,13.1084,9.6964,188.0949,47.92489,0.0029707,0.26780720,9.5713,06/09.0/2026,2000,H 7.33,0.15
# From MPO701511
531142 (531142),e,26.0284,52.9980,141.3006,103.8631,0.0009311,0.62909602,7.4719,06/09.0/2026,2000,H 6.79,0.15
# From MPO701513
531224 (531224),e,4.8198,75.8225,173.9354,57.42213,0.0022651,0.33431316,353.5459,06/09.0/2026,2000,H 6.83,0.15
# From MPO701521
531682 (531682),e,8.9506,180.4162,86.1649,42.90381,0.0035072,0.10835948,158.9757,06/09.0/2026,2000,H 6.07,0.15
# From MPO701526
531942 (531942),e,18.5538,137.0725,40.7527,16.99666,0.0140656,0.37495416,48.6288,06/09.0/2026,2000,H11.79,0.15
# From MPO701527
531999 (531999),e,3.3879,289.8627,282.7004,2.119815,0.3193429,0.05344024,49.9665,06/09.0/2026,2000,H19.24,0.15
# From MPO701528
532039 (532039),e,2.9930,41.9101,131.8107,43.65442,0.0034171,0.24160648,29.5340,06/09.0/2026,2000,H 7.41,0.15
# From MPO701540
532660 (532660),e,7.0472,115.3469,260.7285,8.922462,0.0369809,0.22948435,187.3014,06/09.0/2026,2000,H13.12,0.15
# From MPO701541
532741 (532741),e,18.6526,248.7864,152.9986,1.887220,0.3801634,0.11078121,313.4536,06/09.0/2026,2000,H18.64,0.15
# From MPO701546
533011 (533011),e,5.7089,169.5613,22.7140,1.425372,0.5791777,0.28248071,59.0277,06/09.0/2026,2000,H21.85,0.15
# From MPO701550
533208 (533208),e,26.0142,8.9485,189.0914,77.97462,0.0014314,0.54450120,3.8074,06/09.0/2026,2000,H 7.06,0.15
# From MPO701554
533398 (533398),e,15.7752,128.5214,149.4436,40.86893,0.0037724,0.24183740,354.4048,06/09.0/2026,2000,H 7.23,0.15
# From MPO701557
533560 (533560),e,20.4874,182.4364,96.8141,61.98253,0.0020198,0.25843914,347.6282,06/09.0/2026,2000,H 5.79,0.15
# From MPO701557
533561 (533561),e,17.7676,138.5533,157.0697,41.21882,0.0037244,0.10209631,337.1905,06/09.0/2026,2000,H 6.62,0.15
# From MPO701557
533562 (533562),e,7.9951,109.7461,96.0734,39.27291,0.0040046,0.21654513,33.5263,06/09.0/2026,2000,H 7.36,0.15
# From MPO701557
533563 (533563),e,40.8590,60.7934,131.0044,138.3748,0.0006055,0.72521518,8.1918,06/09.0/2026,2000,H 5.81,0.15
# From MPO701562
533830 (533830),e,17.8640,333.7188,296.5307,1.974706,0.3551817,0.07622469,141.2652,06/09.0/2026,2000,H18.90,0.15
# From MPO701569
534221 (534221),e,2.8070,46.3383,283.5494,2.424254,0.2611180,0.22368624,57.9226,06/09.0/2026,2000,H18.33,0.15
# From MPO701571
534314 (534314),e,8.9116,123.9274,297.6496,42.55704,0.0035502,0.16950572,4.1925,06/09.0/2026,2000,H 7.19,0.15
# From MPO701572
534363 (534363),e,11.7899,210.2269,142.1781,2.618565,0.2325997,0.20205029,295.0640,06/09.0/2026,2000,H17.87,0.15
# From MPO917497
534396 (534396),e,12.1296,210.6808,123.9522,2.643203,0.2293550,0.28635208,295.6974,06/09.0/2026,2000,H17.82,0.15
# From MPO701573
534432 (534432),e,13.9485,209.7766,150.8605,2.655175,0.2278056,0.23189379,278.2419,06/09.0/2026,2000,H17.83,0.15
# From MPO701577
534631 (534631),e,15.9663,15.2788,3.8233,39.89615,0.0039112,0.33859372,18.7735,06/09.0/2026,2000,H 8.89,0.15
# From MPO701596
535660 (535660),e,5.1855,124.6805,82.7381,2.573786,0.2386962,0.18906810,213.9402,06/09.0/2026,2000,H18.26,0.15
# From MPO701602
535988 (535988),e,11.4032,61.2933,131.6167,43.64189,0.0034186,0.27412465,23.1170,06/09.0/2026,2000,H 7.50,0.15
# From MPO970038
536032 (536032),e,14.5422,134.0848,43.5073,2.633988,0.2305596,0.19172778,228.5465,06/09.0/2026,2000,H18.15,0.15
# From MPO701613
536531 (536531),e,13.1976,13.9118,41.4049,1.538472,0.5164994,0.40257876,22.9264,06/09.0/2026,2000,H20.46,0.15
# From MPO701630
537467 (537467),e,14.1383,96.8339,85.7878,1.640057,0.4692623,0.34384972,137.7610,06/09.0/2026,2000,H20.40,0.15
# From MPO701633
537607 (537607),e,7.0211,351.1218,271.3238,2.784174,0.2121581,0.19117156,156.2401,06/09.0/2026,2000,H17.82,0.15
# From MPO745323
537703 (537703),e,29.3345,31.9596,291.9182,2.135473,0.3158369,0.32871383,189.1568,06/09.0/2026,2000,H17.99,0.15
# From MPO701650
538495 (538495),e,20.8567,59.2780,91.2795,14.79261,0.0173235,0.46010033,69.6543,06/09.0/2026,2000,H12.04,0.15
# From MPO701659
538979 (538979),e,22.7424,111.7547,79.6113,2.200796,0.3018801,0.42800993,61.0509,06/09.0/2026,2000,H19.61,0.15
# From MPO701672
539694 (539694),e,22.7330,214.2255,353.2438,1.035329,0.9355921,0.17573063,240.0521,06/09.0/2026,2000,H21.32,0.15
# From MPO701681
540163 (540163),e,13.3814,328.3193,7.1632,2.672227,0.2256286,0.20930361,7.7080,06/09.0/2026,2000,H17.61,0.15
# From MPO701682
540205 (540205),e,42.7057,135.6944,296.0565,6.175873,0.0642180,0.44844032,189.2929,06/09.0/2026,2000,H14.56,0.15
# From MPO701690
540635 (540635),e,2.8548,140.5313,287.8603,2.696135,0.2226341,0.05685089,294.9601,06/09.0/2026,2000,H18.07,0.15
# From MPO917529
541132 Leleakuhonua,e,11.6789,301.1346,118.2238,1348,0.0000199,0.95201614,359.6199,06/09.0/2026,2000,H 5.57,0.15
# From MPO701707
541507 (541507),e,11.6848,162.6127,233.1937,3.956204,0.1252524,0.30668946,290.7757,06/09.0/2026,2000,H16.11,0.15
# From MPO701707
541541 (541541),e,4.1405,113.4566,299.4457,3.913770,0.1272949,0.23481687,304.0627,06/09.0/2026,2000,H16.02,0.15
# From MPO701707
541547 (541547),e,3.8631,44.8627,327.7444,3.976563,0.1242917,0.33739454,323.6811,06/09.0/2026,2000,H16.45,0.15
# From MPO701708
541591 (541591),e,1.5138,13.2180,358.8703,2.473398,0.2533746,0.17651642,289.0890,06/09.0/2026,2000,H18.41,0.15
# From MPO701708
541600 (541600),e,6.2618,246.9930,141.6804,3.963347,0.1249140,0.34527530,312.1405,06/09.0/2026,2000,H15.99,0.15
# From MPO701708
541601 (541601),e,3.0396,165.5699,206.2754,3.973087,0.1244549,0.27559630,324.2370,06/09.0/2026,2000,H16.26,0.15
# From MPO701709
541616 (541616),e,4.9698,297.7253,25.9782,2.581063,0.2376874,0.33257470,224.8541,06/09.0/2026,2000,H17.82,0.15
# From MPO701710
541688 (541688),e,4.7127,152.6024,270.3576,3.936214,0.1262078,0.28317814,292.4923,06/09.0/2026,2000,H16.32,0.15
# From MPO701711
541730 (541730),e,3.1374,162.4230,218.4547,3.952626,0.1254225,0.29014731,330.8595,06/09.0/2026,2000,H16.45,0.15
# From MPO701718
542136 (542136),e,2.2488,62.4629,321.5497,2.356359,0.2724845,0.19342170,294.6577,06/09.0/2026,2000,H18.40,0.15
# From MPO701719
542150 (542150),e,3.4887,237.7216,107.8686,2.314367,0.2799341,0.21640243,359.5680,06/09.0/2026,2000,H18.41,0.15
# From MPO701722
542302 (542302),e,2.9949,112.0162,272.1420,2.367162,0.2706214,0.22838818,313.1972,06/09.0/2026,2000,H18.60,0.15
# From MPO844571
542788 (542788),e,20.4262,222.9007,85.8687,1.938680,0.3651278,0.08639108,239.3735,06/09.0/2026,2000,H18.55,0.15
# From MPO701743
543415 (543415),e,13.4523,278.1121,88.9248,3.977989,0.1242249,0.19723778,335.1977,06/09.0/2026,2000,H15.79,0.15
# From MPO701744
543514 (543514),e,14.0006,235.7872,116.9189,2.664632,0.2265939,0.23059840,196.1015,06/09.0/2026,2000,H17.54,0.15
# From MPO701785
545658 (545658),e,4.0512,197.1800,120.2478,2.133628,0.3162468,0.26852012,285.7453,06/09.0/2026,2000,H19.41,0.15
# From MPO701789
545878 (545878),e,4.4621,43.8830,276.3169,2.136391,0.3156333,0.18514761,301.9670,06/09.0/2026,2000,H19.04,0.15
# From MPO701794
546150 (546150),e,4.5958,75.6583,288.0744,3.005318,0.1891771,0.28207096,14.1761,06/09.0/2026,2000,H17.96,0.15
# From MPO701797
